ISS (ZARYA)             
1 25544U 98067A   26096.00498673  .00007825  00000+0  15107-3 0  9998
2 25544  51.6327 297.3095 0006349 277.1679  82.8588 15.48794122560566
POISK                   
1 36086U 09060A   26096.00498673  .00007825  00000+0  15107-3 0  9996
2 36086  51.6327 297.3095 0006349 277.1679  82.8588 15.48794122560222
CSS (TIANHE)            
1 48274U 21035A   26096.21968250  .00030752  00000+0  34473-3 0  9992
2 48274  41.4683  40.4750 0003703 138.5872 221.5249 15.61996158281917
ISS (NAUKA)             
1 49044U 21066A   26096.00498673  .00007825  00000+0  15107-3 0  9994
2 49044  51.6327 297.3095 0006349 277.1679  82.8588 15.48794122560264
FREGAT DEB              
1 49271U 11037PF  26095.51225242  .00008541  00000+0  12423-1 0  9990
2 49271  51.6426 220.2066 0955047 120.8974 248.9327 12.40936816216024
CSS (WENTIAN)           
1 53239U 22085A   26096.21968250  .00030752  00000+0  34473-3 0  9995
2 53239  41.4683  40.4750 0003703 138.5872 221.5249 15.61996158281150
CSS (MENGTIAN)          
1 54216U 22143A   26096.21968250  .00030752  00000+0  34473-3 0  9996
2 54216  41.4683  40.4750 0003703 138.5872 221.5249 15.61996158281156
TIANZHOU-9              
1 64786U 25149A   26096.21968250  .00030752  00000+0  34473-3 0  9998
2 64786  41.4683  40.4750 0003703 138.5872 221.5249 15.61996158281159
PROGRESS-MS 32          
1 65586U 25204A   26096.00498673  .00007825  00000+0  15107-3 0  9991
2 65586  51.6327 297.3095 0006349 277.1679  82.8588 15.48794122554503
YOTSUBA-KULOVER         
1 65941U 98067XN  26095.69567936  .00696812  23270-3  12875-2 0  9992
2 65941  51.6141 275.5791 0008665 276.0110  83.9912 16.00515818 27795
BOTAN                   
1 65943U 98067XQ  26095.77572269  .00617649  17787-3  12574-2 0  9991
2 65943  51.6174 275.3932 0008519 270.9470  89.0564 15.98819258 27801
HRC MONOBLOCK CAMERA    
1 66052U 98067XR  26095.79772752  .00067135  00000+0  66088-3 0  9999
2 66052  51.6275 288.4191 0003871 229.5804 130.4854 15.65340581 26639
HTV-X1                  
1 66174U 25241A   26096.03908516  .00006812  00000+0  22481-3 0  9999
2 66174  51.6366 301.2234 0007373 278.3754  81.6391 15.32556413 25138
SZ-21 MODULE            
1 66515U 25246C   26096.17762387  .00047296  00000+0  36860-3 0  9999
2 66515  41.4756  33.8728 0003704 235.4775 124.5718 15.70861135 22391
SHENZHOU-22             
1 66645U 25272A   26096.21968250  .00030752  00000+0  34473-3 0  9991
2 66645  41.4683  40.4750 0003703 138.5872 221.5249 15.61996158281155
